{
    "links": {
        "self": "http://www.neowsapp.com/rest/v1/neo/3160735?api_key=iIulBulltgU6a56xZRHN4H3l9WmuAYTsLGpBGhQ2"
    },
    "id": "3160735",
    "neo_reference_id": "3160735",
    "name": "(2003 SH84)",
    "designation": "2003 SH84",
    "nasa_jpl_url": "http://ssd.jpl.nasa.gov/sbdb.cgi?sstr=3160735",
    "absolute_magnitude_h": 23.1,
    "estimated_diameter": {
        "kilometers": {
            "estimated_diameter_min": 0.063760979,
            "estimated_diameter_max": 0.1425738833
        },
        "meters": {
            "estimated_diameter_min": 63.7609789875,
            "estimated_diameter_max": 142.5738833281
        },
        "miles": {
            "estimated_diameter_min": 0.0396192233,
            "estimated_diameter_max": 0.0885912765
        },
        "feet": {
            "estimated_diameter_min": 209.1895703015,
            "estimated_diameter_max": 467.7620993781
        }
    },
    "is_potentially_hazardous_asteroid": false,
    "close_approach_data": [
        {
            "close_approach_date": "2003-10-27",
            "close_approach_date_full": "2003-Oct-27 07:09",
            "epoch_date_close_approach": 1067238540000,
            "relative_velocity": {
                "kilometers_per_second": "1.8797558038",
                "kilometers_per_hour": "6767.1208936439",
                "miles_per_hour": "4204.8257574978"
            },
            "miss_distance": {
                "astronomical": "0.1971005696",
                "lunar": "76.6721215744",
                "kilometers": "29485825.387946752",
                "miles": "18321642.3102270976"
            },
            "orbiting_body": "Earth"
        }
    ],
    "orbital_data": {
        "orbit_id": "15",
        "orbit_determination_date": "2017-04-06 09:13:49",
        "first_observation_date": "2003-09-19",
        "last_observation_date": "2003-12-21",
        "data_arc_in_days": 93,
        "observations_used": 32,
        "orbit_uncertainty": "6",
        "minimum_orbit_intersection": ".175375",
        "jupiter_tisserand_invariant": "4.145",
        "epoch_osculation": "2459000.5",
        "eccentricity": ".315577987471081",
        "semi_major_axis": "1.700010572296263",
        "inclination": "2.324628041740942",
        "ascending_node_longitude": "268.6486233392043",
        "orbital_period": "809.609993414635",
        "perihelion_distance": "1.163524657211448",
        "perihelion_argument": "134.7425485948567",
        "aphelion_distance": "2.236496487381078",
        "perihelion_time": "2458623.907307303633",
        "mean_anomaly": "167.4551580062567",
        "mean_motion": ".4446585429135494",
        "equinox": "J2000",
        "orbit_class": {
            "orbit_class_type": "AMO",
            "orbit_class_description": "Near-Earth asteroid orbits similar to that of 1221 Amor",
            "orbit_class_range": "1.017 AU < q (perihelion) < 1.3 AU"
        }
    },
    "is_sentry_object": false
}